start=new Date('2021-09-19T00:00:00.000Z').valueOf();
sats=[{"CLASSIFICATION_TYPE":"U","DECAY_DATE":null,"EPHEMERIS_TYPE":"0","TLE_LINE2":"2 45044  53.0560  37.5914 0001229 101.8388 258.2738 15.06402729 90606","CENTER_NAME":"EARTH","GP_ID":"184971095","MEAN_MOTION":"15.06402729","APOAPSIS":"548.056","SEMIMAJOR_AXIS":"6925.340","REV_AT_EPOCH":"9060","MEAN_MOTION_DOT":"0.00000965","TLE_LINE1":"1 45044U 20006A   21261.65691166  .00000965  00000-0  83633-4 0  9994","MEAN_ANOMALY":"258.2738","MEAN_ELEMENT_THEORY":"SGP4","RA_OF_ASC_NODE":"37.5914","TIME_SYSTEM":"UTC","PERIOD":"95.592","LAUNCH_DATE":"2020-01-29","COUNTRY_CODE":"US","RCS_SIZE":"LARGE","REF_FRAME":"TEME","INCLINATION":"53.0560","PERIAPSIS":"546.354","EPOCH":"2021-09-18T15:45:57.167424","SITE":"AFETR","OBJECT_ID":"2020-006A","OBJECT_TYPE":"PAYLOAD","NORAD_CAT_ID":"45044","FILE":"3118781","ECCENTRICITY":"0.00012290","OBJECT_NAME":"STARLINK-1132","MEAN_MOTION_DDOT":"0.0000000000000","ARG_OF_PERICENTER":"101.8388","BSTAR":"0.00008363300000","ELEMENT_SET_NO":"999"},{"OBJECT_ID":"2020-006B","PERIAPSIS":"545.946","EPOCH":"2021-09-18T17:02:56.206464","SITE":"AFETR","NORAD_CAT_ID":"45045","FILE":"3118781","OBJECT_TYPE":"PAYLOAD","OBJECT_NAME":"STARLINK-1120","ECCENTRICITY":"0.00018610","ELEMENT_SET_NO":"999","MEAN_MOTION_DDOT":"0.0000000000000","BSTAR":"0.00007013300000","ARG_OF_PERICENTER":"89.6057","LAUNCH_DATE":"2020-01-29","COUNTRY_CODE":"US","RCS_SIZE":"LARGE","REF_FRAME":"TEME","INCLINATION":"53.0548","TLE_LINE1":"1 45045U 20006B   21261.71037276  .00000763  00000-0  70133-4 0  9995","MEAN_ANOMALY":"270.5145","MEAN_ELEMENT_THEORY":"SGP4","TIME_SYSTEM":"UTC","PERIOD":"95.593","RA_OF_ASC_NODE":"57.3513","CLASSIFICATION_TYPE":"U","DECAY_DATE":null,"EPHEMERIS_TYPE":"0","TLE_LINE2":"2 45045  53.0548  57.3513 0001861  89.6057 270.5145 15.06392946 90334","MEAN_MOTION":"15.06392946","APOAPSIS":"548.524","CENTER_NAME":"EARTH","GP_ID":"184971346","MEAN_MOTION_DOT":"0.00000763","REV_AT_EPOCH":"9033","SEMIMAJOR_AXIS":"6925.370"},{"MEAN_MOTION_DDOT":"0.0000000000000","ARG_OF_PERICENTER":"101.2836","BSTAR":"0.00022982000000","ELEMENT_SET_NO":"999","ECCENTRICITY":"0.00016670","OBJECT_NAME":"STARLINK-1129","OBJECT_TYPE":"PAYLOAD","NORAD_CAT_ID":"45046","FILE":"3118781","SITE":"AFETR","EPOCH":"2021-09-18T17:30:29.951712","PERIAPSIS":"541.795","OBJECT_ID":"2020-006C","INCLINATION":"52.9986","RCS_SIZE":"LARGE","REF_FRAME":"TEME","COUNTRY_CODE":"US","LAUNCH_DATE":"2020-01-29","RA_OF_ASC_NODE":"54.4401","PERIOD":"95.504","TIME_SYSTEM":"UTC","MEAN_ELEMENT_THEORY":"SGP4","MEAN_ANOMALY":"258.8341","TLE_LINE1":"1 45046U 20006C   21261.72951333  .00003271  00000-0  22982-3 0  9991","REV_AT_EPOCH":"9035","SEMIMAJOR_AXIS":"6921.084","MEAN_MOTION_DOT":"0.00003271","GP_ID":"184972598","CENTER_NAME":"EARTH","APOAPSIS":"544.103","MEAN_MOTION":"15.07792590","EPHEMERIS_TYPE":"0","TLE_LINE2":"2 45046  52.9986  54.4401 0001667 101.2836 258.8341 15.07792590 90352","DECAY_DATE":null,"CLASSIFICATION_TYPE":"U"},{"MEAN_ANOMALY":"257.7480","MEAN_ELEMENT_THEORY":"SGP4","TLE_LINE1":"1 45047U 20006D   21261.71405196 -.00000660  00000-0 -25406-4 0  9998","RA_OF_ASC_NODE":"57.3417","TIME_SYSTEM":"UTC","PERIOD":"95.592","TLE_LINE2":"2 45047  53.0570  57.3417 0001721 102.3702 257.7480 15.06394598 90333","EPHEMERIS_TYPE":"0","DECAY_DATE":null,"CLASSIFICATION_TYPE":"U","SEMIMAJOR_AXIS":"6925.365","REV_AT_EPOCH":"9033","MEAN_MOTION_DOT":"-0.00000660","GP_ID":"184972348","CENTER_NAME":"EARTH","MEAN_MOTION":"15.06394598","APOAPSIS":"548.422","OBJECT_TYPE":"PAYLOAD","FILE":"3118781","NORAD_CAT_ID":"45047","PERIAPSIS":"546.038","EPOCH":"2021-09-18T17:08:14.089344","SITE":"AFETR","OBJECT_ID":"2020-006D","BSTAR":"-0.00002540600000","MEAN_MOTION_DDOT":"0.0000000000000","ARG_OF_PERICENTER":"102.3702","ELEMENT_SET_NO":"999","ECCENTRICITY":"0.00017210","OBJECT_NAME":"STARLINK-1131","REF_FRAME":"TEME","RCS_SIZE":"LARGE","LAUNCH_DATE":"2020-01-29","COUNTRY_CODE":"US","INCLINATION":"53.0570"},{"FILE":"3118781","NORAD_CAT_ID":"45048","OBJECT_TYPE":"PAYLOAD","OBJECT_ID":"2020-006E","SITE":"AFETR","EPOCH":"2021-09-18T17:18:51.852672","PERIAPSIS":"546.156","ELEMENT_SET_NO":"999","MEAN_MOTION_DDOT":"0.0000000000000","BSTAR":"0.00006579600000","ARG_OF_PERICENTER":"96.4419","OBJECT_NAME":"STARLINK-1134","ECCENTRICITY":"0.00015570","REF_FRAME":"TEME","RCS_SIZE":"LARGE","COUNTRY_CODE":"US","LAUNCH_DATE":"2020-01-29","INCLINATION":"53.0565","MEAN_ELEMENT_THEORY":"SGP4","MEAN_ANOMALY":"263.6747","TLE_LINE1":"1 45048U 20006E   21261.72143348  .00000698  00000-0  65796-4 0  9993","PERIOD":"95.593","TIME_SYSTEM":"UTC","RA_OF_ASC_NODE":"57.3018","TLE_LINE2":"2 45048  53.0565  57.3018 0001557  96.4419 263.6747 15.06393320 90334","EPHEMERIS_TYPE":"0","CLASSIFICATION_TYPE":"U","DECAY_DATE":null,"MEAN_MOTION_DOT":"0.00000698","REV_AT_EPOCH":"9033","SEMIMAJOR_AXIS":"6925.369","APOAPSIS":"548.312","MEAN_MOTION":"15.06393320","CENTER_NAME":"EARTH","GP_ID":"184971596"},{"ELEMENT_SET_NO":"999","ARG_OF_PERICENTER":"95.7785","MEAN_MOTION_DDOT":"0.0000000000000","BSTAR":"0.00008650400000","OBJECT_NAME":"STARLINK-1135","ECCENTRICITY":"0.00018470","FILE":"3118781","NORAD_CAT_ID":"45049","OBJECT_TYPE":"PAYLOAD","OBJECT_ID":"2020-006F","EPOCH":"2021-09-18T17:24:09.532512","SITE":"AFETR","PERIAPSIS":"545.922","INCLINATION":"53.0556","RCS_SIZE":"LARGE","REF_FRAME":"TEME","COUNTRY_CODE":"US","LAUNCH_DATE":"2020-01-29","PERIOD":"95.592","TIME_SYSTEM":"UTC","RA_OF_ASC_NODE":"57.2881","MEAN_ELEMENT_THEORY":"SGP4","MEAN_ANOMALY":"264.3415","TLE_LINE1":"1 45049U 20006F   21261.72511033  .00001007  00000-0  86504-4 0  9999","MEAN_MOTION_DOT":"0.00001007","SEMIMAJOR_AXIS":"6925.337","REV_AT_EPOCH":"9033","APOAPSIS":"548.481","MEAN_MOTION":"15.06403921","GP_ID":"184971847","CENTER_NAME":"EARTH","TLE_LINE2":"2 45049  53.0556  57.2881 0001847  95.7785 264.3415 15.06403921 90331","EPHEMERIS_TYPE":"0","DECAY_DATE":null,"CLASSIFICATION_TYPE":"U"},{"CLASSIFICATION_TYPE":"U","DECAY_DATE":null,"TLE_LINE2":"2 45050  53.0565  57.2630 0001441  79.7063 280.4088 15.06399536 90337","EPHEMERIS_TYPE":"0","MEAN_MOTION":"15.06399536","APOAPSIS":"548.213","GP_ID":"184972098","CENTER_NAME":"EARTH","MEAN_MOTION_DOT":"0.00001262","SEMIMAJOR_AXIS":"6925.350","REV_AT_EPOCH":"9033","TLE_LINE1":"1 45050U 20006G   21261.73247835  .00001262  00000-0  10363-3 0  9990","MEAN_ANOMALY":"280.4088","MEAN_ELEMENT_THEORY":"SGP4","TIME_SYSTEM":"UTC","PERIOD":"95.592","RA_OF_ASC_NODE":"57.2630","LAUNCH_DATE":"2020-01-29","COUNTRY_CODE":"US","RCS_SIZE":"LARGE","REF_FRAME":"TEME","INCLINATION":"53.0565","OBJECT_ID":"2020-006G","PERIAPSIS":"546.217","EPOCH":"2021-09-18T17:34:46.129440","SITE":"AFETR","NORAD_CAT_ID":"45050","FILE":"3118781","OBJECT_TYPE":"PAYLOAD","OBJECT_NAME":"STARLINK-1140","ECCENTRICITY":"0.00014410","ELEMENT_SET_NO":"999","MEAN_MOTION_DDOT":"0.0000000000000","ARG_OF_PERICENTER":"79.7063","BSTAR":"0.00010363000000"},{"DECAY_DATE":null,"CLASSIFICATION_TYPE":"U","TLE_LINE2":"2 45051  53.0549  57.2671 0002037  93.9811 266.1411 15.06387803 90331","EPHEMERIS_TYPE":"0","MEAN_MOTION":"15.06387803","APOAPSIS":"548.662","CENTER_NAME":"EARTH","GP_ID":"184972849","MEAN_MOTION_DOT":"-0.00001795","SEMIMAJOR_AXIS":"6925.386","REV_AT_EPOCH":"9033","TLE_LINE1":"1 45051U 20006H   21261.72880023 -.00001795  00000-0 -10165-3 0  9995","MEAN_ANOMALY":"266.1411","MEAN_ELEMENT_THEORY":"SGP4","TIME_SYSTEM":"UTC","PERIOD":"95.593","RA_OF_ASC_NODE":"57.2671","LAUNCH_DATE":"2020-01-29","COUNTRY_CODE":"US","REF_FRAME":"TEME","RCS_SIZE":"LARGE","INCLINATION":"53.0549","OBJECT_ID":"2020-006H","PERIAPSIS":"545.840","SITE":"AFETR","EPOCH":"2021-09-18T17:29:28.339872","FILE":"3118781","NORAD_CAT_ID":"45051","OBJECT_TYPE":"PAYLOAD","OBJECT_NAME":"STARLINK-1141","ECCENTRICITY":"0.00020370","ELEMENT_SET_NO":"999","BSTAR":"-0.00010165000000","MEAN_MOTION_DDOT":"0.0000000000000","ARG_OF_PERICENTER":"93.9811"},{"INCLINATION":"53.0568","RCS_SIZE":"LARGE","REF_FRAME":"TEME","COUNTRY_CODE":"US","LAUNCH_DATE":"2020-01-29","MEAN_MOTION_DDOT":"0.0000000000000","BSTAR":"0.00006487900000","ARG_OF_PERICENTER":"87.8412","ELEMENT_SET_NO":"999","ECCENTRICITY":"0.00019880","OBJECT_NAME":"STARLINK-1148","OBJECT_TYPE":"PAYLOAD","FILE":"3118781","NORAD_CAT_ID":"45052","SITE":"AFETR","EPOCH":"2021-09-18T17:45:22.582944","PERIAPSIS":"545.831","OBJECT_ID":"2020-006J","SEMIMAJOR_AXIS":"6925.343","REV_AT_EPOCH":"9033","MEAN_MOTION_DOT":"0.00000685","GP_ID":"184971096","CENTER_NAME":"EARTH","APOAPSIS":"548.585","MEAN_MOTION":"15.06401790","TLE_LINE2":"2 45052  53.0568  57.2289 0001988  87.8412 272.2805 15.06401790 90338","EPHEMERIS_TYPE":"0","DECAY_DATE":null,"CLASSIFICATION_TYPE":"U","RA_OF_ASC_NODE":"57.2289","PERIOD":"95.592","TIME_SYSTEM":"UTC","MEAN_ELEMENT_THEORY":"SGP4","MEAN_ANOMALY":"272.2805","TLE_LINE1":"1 45052U 20006J   21261.73984471  .00000685  00000-0  64879-4 0  9996"},{"COUNTRY_CODE":"US","LAUNCH_DATE":"2020-01-29","RCS_SIZE":"LARGE","REF_FRAME":"TEME","INCLINATION":"53.0009","EPOCH":"2021-09-18T17:13:57.169056","SITE":"AFETR","PERIAPSIS":"543.540","OBJECT_ID":"2020-006K","OBJECT_TYPE":"PAYLOAD","FILE":"3118781","NORAD_CAT_ID":"45053","ECCENTRICITY":"0.00028630","OBJECT_NAME":"STARLINK-1155","MEAN_MOTION_DDOT":"0.0000000000000","ARG_OF_PERICENTER":"94.3678","BSTAR":"0.00017980000000","ELEMENT_SET_NO":"999","DECAY_DATE":null,"CLASSIFICATION_TYPE":"U","EPHEMERIS_TYPE":"0","TLE_LINE2":"2 45053  53.0009  56.0951 0002863  94.3678 265.7638 15.06951869 90330","GP_ID":"184971347","CENTER_NAME":"EARTH","APOAPSIS":"547.505","MEAN_MOTION":"15.06951869","SEMIMAJOR_AXIS":"6923.658","REV_AT_EPOCH":"9033","MEAN_MOTION_DOT":"0.00002436","TLE_LINE1":"1 45053U 20006K   21261.71802279  .00002436  00000-0  17980-3 0  9996","MEAN_ELEMENT_THEORY":"SGP4","MEAN_ANOMALY":"265.7638","RA_OF_ASC_NODE":"56.0951","PERIOD":"95.557","TIME_SYSTEM":"UTC"}];
